{
  "type": "FeatureCollection",
  "features": [
    {
      "type": "Feature",
      "properties": {
        "norad_id": 44334,
        "name": "EUTELSAT 7C",
        "group": "eutelsat",
        "lat": 0.03376200575282073,
        "lon": -117.25274194431493,
        "alt_km": 35772.73117941309,
        "timestamp": "2025-12-03T10:52:57.121590+00:00",
        "meta_object_name": "EUTELSAT 7C",
        "meta_object_id": "2019-034B",
        "meta_epoch": "2025-12-03T01:48:14.168736",
        "meta_mean_motion": 1.00268682,
        "meta_eccentricity": 0.0003374,
        "meta_inclination": 0.0767,
        "meta_ra_of_asc_node": 182.9108,
        "meta_arg_of_pericenter": 52.7146,
        "meta_mean_anomaly": 230.595,
        "meta_ephemeris_type": 0,
        "meta_classification_type": "U",
        "meta_norad_cat_id": 44334,
        "meta_element_set_no": 999,
        "meta_rev_at_epoch": 486,
        "meta_bstar": 0,
        "meta_mean_motion_dot": 6.7e-07,
        "meta_mean_motion_ddot": 0,
        "tle_line1": "1 44334U 19034B   25337.07516399  .00000067  00000+0  00000+0 0  9996",
        "tle_line2": "2 44334   0.0767 182.9108 0003374  52.7146 230.5950  1.00268682  4866"
      },
      "geometry": {
        "type": "Point",
        "coordinates": [
          -117.25274194431493,
          0.03376200575282073
        ]
      }
    },
    {
      "type": "Feature",
      "properties": {
        "norad_id": 44624,
        "name": "EUTELSAT 5 WEST B",
        "group": "eutelsat",
        "lat": -0.09610058923173975,
        "lon": -129.24568837469292,
        "alt_km": 35771.37684129135,
        "timestamp": "2025-12-03T10:52:57.121602+00:00",
        "meta_object_name": "EUTELSAT 5 WEST B",
        "meta_object_id": "2019-067A",
        "meta_epoch": "2025-12-03T01:44:44.505312",
        "meta_mean_motion": 1.00272718,
        "meta_eccentricity": 0.0003688,
        "meta_inclination": 0.0715,
        "meta_ra_of_asc_node": 327.4038,
        "meta_arg_of_pericenter": 285.8199,
        "meta_mean_anomaly": 200.1434,
        "meta_ephemeris_type": 0,
        "meta_classification_type": "U",
        "meta_norad_cat_id": 44624,
        "meta_element_set_no": 999,
        "meta_rev_at_epoch": 2247,
        "meta_bstar": 0,
        "meta_mean_motion_dot": -2.2e-07,
        "meta_mean_motion_ddot": 0,
        "tle_line1": "1 44624U 19067A   25337.07273733 -.00000022  00000+0  00000+0 0  9998",
        "tle_line2": "2 44624   0.0715 327.4038 0003688 285.8199 200.1434  1.00272718 22476"
      },
      "geometry": {
        "type": "Point",
        "coordinates": [
          -129.24568837469292,
          -0.09610058923173975
        ]
      }
    },
    {
      "type": "Feature",
      "properties": {
        "norad_id": 45027,
        "name": "EUTELSAT KONNECT",
        "group": "eutelsat",
        "lat": 0.005218875139278638,
        "lon": -117.06950703733796,
        "alt_km": 35781.785585583435,
        "timestamp": "2025-12-03T10:52:57.121614+00:00",
        "meta_object_name": "EUTELSAT KONNECT",
        "meta_object_id": "2020-005B",
        "meta_epoch": "2025-12-03T01:48:14.168736",
        "meta_mean_motion": 1.00268081,
        "meta_eccentricity": 0.0001716,
        "meta_inclination": 0.067,
        "meta_ra_of_asc_node": 99.7816,
        "meta_arg_of_pericenter": 186.3051,
        "meta_mean_anomaly": 180.3357,
        "meta_ephemeris_type": 0,
        "meta_classification_type": "U",
        "meta_norad_cat_id": 45027,
        "meta_element_set_no": 999,
        "meta_rev_at_epoch": 2236,
        "meta_bstar": 0,
        "meta_mean_motion_dot": 6.8e-07,
        "meta_mean_motion_ddot": 0,
        "tle_line1": "1 45027U 20005B   25337.07516399  .00000068  00000+0  00000+0 0  9997",
        "tle_line2": "2 45027   0.0670  99.7816 0001716 186.3051 180.3357  1.00268081 22368"
      },
      "geometry": {
        "type": "Point",
        "coordinates": [
          -117.06950703733796,
          0.005218875139278638
        ]
      }
    },
    {
      "type": "Feature",
      "properties": {
        "norad_id": 49056,
        "name": "EUTELSAT QUANTUM",
        "group": "eutelsat",
        "lat": -0.028694434473318462,
        "lon": -76.52189906362794,
        "alt_km": 35770.99130635131,
        "timestamp": "2025-12-03T10:52:57.121626+00:00",
        "meta_object_name": "EUTELSAT QUANTUM",
        "meta_object_id": "2021-069B",
        "meta_epoch": "2025-12-03T01:59:50.557056",
        "meta_mean_motion": 1.00271603,
        "meta_eccentricity": 0.0003748,
        "meta_inclination": 0.0169,
        "meta_ra_of_asc_node": 10.728,
        "meta_arg_of_pericenter": 255.0351,
        "meta_mean_anomaly": 244.0851,
        "meta_ephemeris_type": 0,
        "meta_classification_type": "U",
        "meta_norad_cat_id": 49056,
        "meta_element_set_no": 999,
        "meta_rev_at_epoch": 1596,
        "meta_bstar": 0,
        "meta_mean_motion_dot": 1.45e-06,
        "meta_mean_motion_ddot": 0,
        "tle_line1": "1 49056U 21069B   25337.08322404  .00000145  00000+0  00000+0 0  9993",
        "tle_line2": "2 49056   0.0169  10.7280 0003748 255.0351 244.0851  1.00271603 15968"
      },
      "geometry": {
        "type": "Point",
        "coordinates": [
          -76.52189906362794,
          -0.028694434473318462
        ]
      }
    },
    {
      "type": "Feature",
      "properties": {
        "norad_id": 53765,
        "name": "EUTELSAT KONNECT VHTS",
        "group": "eutelsat",
        "lat": 0.006353358595475616,
        "lon": -121.55169859312866,
        "alt_km": 35775.25439271423,
        "timestamp": "2025-12-03T10:52:57.121637+00:00",
        "meta_object_name": "EUTELSAT KONNECT VHTS",
        "meta_object_id": "2022-110A",
        "meta_epoch": "2025-12-03T01:46:59.289312",
        "meta_mean_motion": 1.00268981,
        "meta_eccentricity": 0.0002765,
        "meta_inclination": 0.0598,
        "meta_ra_of_asc_node": 107.4799,
        "meta_arg_of_pericenter": 122.6736,
        "meta_mean_anomaly": 231.4548,
        "meta_ephemeris_type": 0,
        "meta_classification_type": "U",
        "meta_norad_cat_id": 53765,
        "meta_element_set_no": 999,
        "meta_rev_at_epoch": 486,
        "meta_bstar": 0,
        "meta_mean_motion_dot": 3.6e-07,
        "meta_mean_motion_ddot": 0,
        "tle_line1": "1 53765U 22110A   25337.07429733  .00000036  00000+0  00000+0 0  9994",
        "tle_line2": "2 53765   0.0598 107.4799 0002765 122.6736 231.4548  1.00268981  4864"
      },
      "geometry": {
        "type": "Point",
        "coordinates": [
          -121.55169859312866,
          0.006353358595475616
        ]
      }
    },
    {
      "type": "Feature",
      "properties": {
        "norad_id": 54048,
        "name": "EUTELSAT HOTBIRD 13F",
        "group": "eutelsat",
        "lat": -0.05551225600710873,
        "lon": -111.26098933272706,
        "alt_km": 35788.45386346577,
        "timestamp": "2025-12-03T10:52:57.121649+00:00",
        "meta_object_name": "EUTELSAT HOTBIRD 13F",
        "meta_object_id": "2022-134A",
        "meta_epoch": "2025-12-02T19:57:38.448000",
        "meta_mean_motion": 1.00271371,
        "meta_eccentricity": 0.0001918,
        "meta_inclination": 0.0542,
        "meta_ra_of_asc_node": 289.0481,
        "meta_arg_of_pericenter": 66.1354,
        "meta_mean_anomaly": 29.1621,
        "meta_ephemeris_type": 0,
        "meta_classification_type": "U",
        "meta_norad_cat_id": 54048,
        "meta_element_set_no": 999,
        "meta_rev_at_epoch": 1140,
        "meta_bstar": 0,
        "meta_mean_motion_dot": 1.07e-06,
        "meta_mean_motion_ddot": 0,
        "tle_line1": "1 54048U 22134A   25336.83169500  .00000107  00000+0  00000+0 0  9990",
        "tle_line2": "2 54048   0.0542 289.0481 0001918  66.1354  29.1621  1.00271371 11409"
      },
      "geometry": {
        "type": "Point",
        "coordinates": [
          -111.26098933272706,
          -0.05551225600710873
        ]
      }
    },
    {
      "type": "Feature",
      "properties": {
        "norad_id": 54225,
        "name": "EUTELSAT HOTBIRD 13G",
        "group": "eutelsat",
        "lat": -0.01205700364255812,
        "lon": -111.22461454255091,
        "alt_km": 35782.263179667265,
        "timestamp": "2025-12-03T10:52:57.121661+00:00",
        "meta_object_name": "EUTELSAT HOTBIRD 13G",
        "meta_object_id": "2022-146A",
        "meta_epoch": "2025-12-03T00:07:14.496096",
        "meta_mean_motion": 1.00271219,
        "meta_eccentricity": 0.0002105,
        "meta_inclination": 0.0475,
        "meta_ra_of_asc_node": 238.4149,
        "meta_arg_of_pericenter": 306.4933,
        "meta_mean_anomaly": 262.0024,
        "meta_ephemeris_type": 0,
        "meta_classification_type": "U",
        "meta_norad_cat_id": 54225,
        "meta_element_set_no": 999,
        "meta_rev_at_epoch": 549,
        "meta_bstar": 0,
        "meta_mean_motion_dot": 1.07e-06,
        "meta_mean_motion_ddot": 0,
        "tle_line1": "1 54225U 22146A   25337.00502889  .00000107  00000+0  00000+0 0  9991",
        "tle_line2": "2 54225   0.0475 238.4149 0002105 306.4933 262.0024  1.00271219  5490"
      },
      "geometry": {
        "type": "Point",
        "coordinates": [
          -111.22461454255091,
          -0.01205700364255812
        ]
      }
    }
  ]
}